INTELSAT 902 (IS-902)   
1 26900U 01039A   26183.07360656 -.00000276  00000+0  00000+0 0  9997
2 26900   6.1537  71.6012 0004298  27.5125 157.3906  1.00272101 90849
INTELSAT 904 (IS-904)   
1 27380U 02007A   26183.43377800 -.00000219  00000+0  00000+0 0  9992
2 27380   6.9556  69.0021 0006275  16.0550 320.0982  1.00271556 51915
DIRECTV 5 (TEMPO 1)     
1 27426U 02023A   26183.34691672 -.00000049  00000+0  00000+0 0  9998
2 27426   4.9142  75.1255 0003536  34.9369 185.1094  1.00271742 88276
INTELSAT 905 (IS-905)   
1 27438U 02027A   26183.48169733  .00000101  00000+0  00000+0 0  9996
2 27438   6.7895  69.6168 0004011  32.6759 214.4348  1.00272483 51510
GALAXY 3C (G-3C)        
1 27445U 02030A   26183.56378632 -.00000144  00000+0  00000+0 0  9995
2 27445   3.7702  77.7817 0001914  28.8727 282.0852  1.00272065 46649
INTELSAT 906 (IS-906)   
1 27513U 02041A   26183.58449419  .00000021  00000+0  00000+0 0  9990
2 27513   5.8406  72.7315 0004081  10.5056 111.9429  1.00270541 87189
GALAXY 13 (HORIZONS-1)  
1 27954U 03044A   26183.55286626  .00000142  00000+0  00000+0 0  9993
2 27954   1.4582  83.6672 0001696  13.5458 232.3808  1.00272262 46726
INTELSAT 10-02          
1 28358U 04022A   26183.08334034 -.00000001  00000+0  00000+0 0  9999
2 28358   0.0388 265.6144 0000321 255.3379 148.1780  1.00271302 80705
DIRECTV 8               
1 28659U 05019A   26183.34350281  .00000000  00000+0  00000+0 0  9999
2 28659   0.0190  26.9867 0003334  86.8864 171.1311  1.00270485 77223
GALAXY 28 (G-28)        
1 28702U 05022A   26183.22074189 -.00000192  00000+0  00000+0 0  9992
2 28702   3.3353  78.7558 0002536  18.2071 235.6688  1.00270650 52122
GALAXY 16 (G-16)        
1 29236U 06023A   26183.42043127 -.00000116  00000+0  00000+0 0  9993
2 29236   0.0148 112.6798 0002761 344.7452 235.3937  1.00271883 73121
DIRECTV 9S              
1 29494U 06043A   26183.41999793 -.00000104  00000+0  00000+0 0  9996
2 29494   2.4578  80.7286 0005395  23.7304 226.0034  1.00271909 51538
GALAXY 17 (G-17)        
1 31307U 07016B   26183.56577966 -.00000197  00000+0  00000+0 0  9995
2 31307   3.0084  79.7150 0004022  21.2812 298.2768  1.00271122 69951
INTELSAT 11 (IS-11)     
1 32253U 07044B   26183.59404762  .00000094  00000+0  00000+0 0  9998
2 32253   3.6031  78.4901 0003486  89.1660  24.8497  0.99048059 68608
HORIZONS-2              
1 32388U 07063B   26183.28109468 -.00000244  00000+0  00000+0 0  9997
2 32388   2.6388  80.4497 0004058  12.5773 214.6607  1.00269369 67967
DIRECTV 11              
1 32729U 08013A   26183.42034461 -.00000115  00000+0  00000+0 0  9995
2 32729   0.0447 216.1578 0000379 259.4156 217.0321  1.00271629 45745
GALAXY 18 (G-18)        
1 32951U 08024A   26183.55823963  .00000036  00000+0  00000+0 0  9992
2 32951   0.0143  54.7472 0003186  52.3051 251.5085  1.00272114 46007
GALAXY 19 (G-19)        
1 33376U 08045A   26183.56335299 -.00000128  00000+0  00000+0 0  9991
2 33376   0.0502 249.6507 0002940 227.2246 269.5291  1.00271530 65053
FM-5                    
1 35493U 09034A   26183.28041225 -.00000190  00000+0  00000+0 0  9993
2 35493   0.0323 277.6962 0000783  74.9241 302.4819  1.00272883 46792
INTELSAT 14 (IS-14)     
1 36097U 09064A   26183.21718853 -.00000263  00000+0  00000+0 0  9999
2 36097   0.0232 295.0890 0002729 169.1235 209.2257  1.00269734 60751
INTELSAT 15 (IS-15)     
1 36106U 09067A   26183.59942553 -.00000175  00000+0  00000+0 0  9992
2 36106   0.0167 346.7739 0002495 114.4066 120.3937  1.00272797 41389
DIRECTV 12              
1 36131U 09075A   26183.27711890 -.00000093  00000+0  00000+0 0  9991
2 36131   0.0140 126.9668 0000334   0.0217 150.3693  1.00271870 46709
INTELSAT 16 (IS-16)     
1 36397U 10006A   26183.42493796 -.00000234  00000+0  00000+0 0  9997
2 36397   0.0092  41.9781 0002472  75.3467 239.9198  1.00272658 59802
XM-5                    
1 37185U 10053A   26183.48725483 -.00000013  00000+0  00000+0 0  9997
2 37185   0.0660 267.8225 0002503 285.3516 147.5652  1.00274106 57632
INTELSAT 17 (IS-17)     
1 37238U 10065B   26183.54549911  .00000000  00000+0  00000+0 0  9991
2 37238   0.0315  85.4458 0002652  36.3249  61.1692  1.00271792 53406
INTELSAT 28 (IS-28)     
1 37392U 11016A   26183.43369133 -.00000215  00000+0  00000+0 0  9992
2 37392   1.8433  82.4463 0003953  21.7753 300.6380  1.00272308 53435
INTELSAT 18 (IS-18)     
1 37834U 11056A   26183.04795329  .00000063  00000+0  00000+0 0  9994
2 37834   0.0153 323.3049 0002051 141.8735  12.1717  1.00271269 53967
INTELSAT 22 (IS-22)     
1 38098U 12011A   26183.59132796 -.00000048  00000+0  00000+0 0  9996
2 38098   0.0162  43.7094 0001687  53.2740 108.6126  1.00271291  7340
INTELSAT 19 (IS-19)     
1 38356U 12030A   26183.54280821 -.00000046  00000+0  00000+0 0  9990
2 38356   0.0189  14.6425 0003383  96.3853 170.9629  1.00271589 50606
INTELSAT 20 (IS-20)     
1 38740U 12043A   26183.23876863 -.00000014  00000+0  00000+0 0  9999
2 38740   0.0074  32.9340 0001250 148.8144 252.9806  1.00271000 50899
INTELSAT 21 (IS-21)     
1 38749U 12045A   26183.42849131 -.00000274  00000+0  00000+0 0  9997
2 38749   0.0290 280.0607 0001920 193.0490 263.6194  1.00272829 50675
INTELSAT 23 (IS-23)     
1 38867U 12057A   26183.42953132 -.00000274  00000+0  00000+0 0  9998
2 38867   0.0141   3.9446 0000305 202.1067 176.0338  1.00267382 50105
FM-6                    
1 39360U 13058A   26183.55953963 -.00000005  00000+0  00000+0 0  9997
2 39360   0.0187  48.4119 0001939 131.6012 185.7008  1.00271407 46227
INTELSAT 30 (IS-30)     
1 40271U 14062A   26183.27859223 -.00000140  00000+0  00000+0 0  9999
2 40271   0.0230  52.7224 0001365 350.4301 242.4035  1.00271490  6947
DIRECTV 14              
1 40333U 14078B   26183.42034461 -.00000115  00000+0  00000+0 0  9993
2 40333   0.0102  26.2148 0000293   2.4668 303.8682  1.00271936 42196
DIRECTV 15              
1 40663U 15026A   26183.38447669 -.00000091  00000+0  00000+0 0  9999
2 40663   0.0164  65.5164 0000502 342.1104 268.3228  1.00269097 40617
SKY MEXICO-1            
1 40664U 15026B   26183.28179892 -.00000224  00000+0  00000+0 0  9997
2 40664   0.0183  34.3039 0002650  85.6844 182.9749  1.00270354 40606
INTELSAT 34 (IS-34)     
1 40874U 15039A   26183.57149969 -.00000275  00000+0  00000+0 0  9994
2 40874   0.0108  13.9056 0000468  22.0921  34.8455  1.00269667 39785
INTELSAT 31 (IS-31)     
1 41581U 16035A   26182.55806885 -.00000140  00000+0  00000+0 0  9992
2 41581   0.0162 287.8314 0000652 350.1203 107.5034  1.00270123 36825
INTELSAT 36 (IS-36)     
1 41747U 16053A   26183.38219022 -.00000014  00000+0  00000+0 0  9999
2 41747   0.0112  23.1610 0002024 324.0014 139.3450  1.00270659 36110
INTELSAT 32E (IS-32E)   
1 41945U 17007B   26183.00360649  .00000000  00000+0  00000+0 0  9994
2 41945   0.0229  30.0875 0000343 311.5669 256.5154  1.00267253 34373
INTELSAT 35E (IS-35E)   
1 42818U 17041A   26183.44264175  .00000000  00000+0  00000+0 0  9997
2 42818   0.0226  34.7368 0002041  63.7178 306.8757  1.00271803 32963
INTELSAT 37E (IS-37E)   
1 42950U 17059A   26183.36511682  .00000000  00000+0  00000+0 0  9992
2 42950   0.0252  44.1343 0002842  59.0259 290.6893  1.00270692 32218
AZERSPACE 2 (IS-38)     
1 43632U 18074A   26183.44880176  .00000147  00000+0  00000+0 0  9996
2 43632   0.0187  35.8650 0001605  70.9304  20.3640  1.00271685 28609
HORIZONS-3E             
1 43633U 18074B   26183.53725601  .00000000  00000+0  00000+0 0  9996
2 43633   0.0056 102.9558 0000735 164.5904  15.4578  1.00267200 28497
AT&T T-16               
1 44333U 19034A   26183.33794516 -.00000105  00000+0  00000+0 0  9997
2 44333   0.0170  65.0064 0000418 285.9116 310.2612  1.00273787 25785
INTELSAT 39 (IS-39)     
1 44476U 19049B   26183.45229633  .00000000  00000+0  00000+0 0  9990
2 44476   0.0215  27.0738 0000954 315.5013 162.6960  1.00269540 25282
GALAXY 30 (G-30)        
1 46114U 20056C   26183.55780628  .00000000  00000+0  00000+0 0  9998
2 46114   0.0213  27.0649 0002165  75.3952 253.9468  1.00271482 21440
GALAXY 33 (G-33)        
1 54026U 22128A   26183.51913959  .00000089  00000+0  00000+0 0  9999
2 54026   0.0112  40.1946 0002569  55.7468 238.5150  1.00274839 13893
GALAXY 34 (G-34)        
1 54027U 22128B   26183.47614259  .00000069  00000+0  00000+0 0  9994
2 54027   0.0120  27.3706 0001920  75.7855 219.7727  1.00272688 14067
GALAXY 31 (G-31)        
1 54243U 22153A   26183.55858630  .00000024  00000+0  00000+0 0  9995
2 54243   0.0137  81.1869 0001564  18.0069 261.4853  1.00272134  7280
GALAXY 32 (G-32)        
1 54244U 22153B   26183.56456632 -.00000164  00000+0  00000+0 0  9999
2 54244   0.0105  15.3279 0001988  35.2758 342.2488  1.00272409 13291
GALAXY 35 (G-35)        
1 54741U 22170A   26183.56413299 -.00000152  00000+0  00000+0 0  9999
2 54741   0.0164  55.7529 0002307  46.1625 288.6647  1.00272915 13049
GALAXY 36 (G-36)        
1 54742U 22170B   26183.56491300 -.00000175  00000+0  00000+0 0  9994
2 54742   0.0048  83.7692 0002928   9.1341 302.0676  1.00272549 12928
GALAXY 37 (G-37)        
1 57493U 23112A   26183.55745962  .00000059  00000+0  00000+0 0  9992
2 57493   0.0185 349.2946 0002097 113.4451 251.5387  1.00271630 10695
